CTC1_L_00560016-03
1 86424U 25861ZR  26070.40840278  .00000000  00000+0  00000-0 0  9993
2 86424  98.0000 180.0000 0000000   0.0000   0.0000 14.73473854    19
CTC1_L_00560016-04
1 86425U 23336RC  26070.40840278  .00000000  00000+0  00000-0 0  9999
2 86425  98.0000 180.0000 0000000   0.0000  90.0000 14.73473854    19
CTC1_L_00560017-01
1 86426U 23896GW  26070.40840278  .00000000  00000+0  00000-0 0  9991
2 86426  98.0000 192.0000 0000000   0.0000 192.0000 14.73473854    16
CTC1_L_00560017-02
1 86427U 26604GA  26070.40840278  .00000000  00000+0  00000-0 0  9992
2 86427  98.0000 192.0000 0000000   0.0000 282.0000 14.73473854    17
CTC1_L_00560017-03
1 86428U 23701QU  26070.40840278  .00000000  00000+0  00000-0 0  9998
2 86428  98.0000 192.0000 0000000   0.0000  12.0000 14.73473854    19
CTC1_L_00560017-04
1 86429U 26855SO  26070.40840278  .00000000  00000+0  00000-0 0  9992
2 86429  98.0000 192.0000 0000000   0.0000 102.0000 14.73473854    10
CTC1_L_00560018-01
1 86430U 26363CM  26070.40840278  .00000000  00000+0  00000-0 0  9998
2 86430  98.0000 204.0000 0000000   0.0000 204.0000 14.73473854    19
CTC1_L_00560018-02
1 86431U 25059AV  26070.40840278  .00000000  00000+0  00000-0 0  9990
2 86431  98.0000 204.0000 0000000   0.0000 294.0000 14.73473854    19
CTC1_L_00560018-03
1 86432U 26746TR  26070.40840278  .00000000  00000+0  00000-0 0  9995
2 86432  98.0000 204.0000 0000000   0.0000  24.0000 14.73473854    11
CTC1_L_00560018-04
1 86433U 25204XW  26070.40840278  .00000000  00000+0  00000-0 0  9994
2 86433  98.0000 204.0000 0000000   0.0000 114.0000 14.73473854    12
CTC1_L_00560019-01
1 86434U 23558TF  26070.40840278  .00000000  00000+0  00000-0 0  9995
2 86434  98.0000 216.0000 0000000   0.0000 216.0000 14.73473854    19
CTC1_L_00560019-02
1 86435U 26547CM  26070.40840278  .00000000  00000+0  00000-0 0  9997
2 86435  98.0000 216.0000 0000000   0.0000 306.0000 14.73473854    10
CTC1_L_00560019-03
1 86436U 24783XH  26070.40840278  .00000000  00000+0  00000-0 0  9998
2 86436  98.0000 216.0000 0000000   0.0000  36.0000 14.73473854    11
CTC1_L_00560019-04
1 86437U 23451KC  26070.40840278  .00000000  00000+0  00000-0 0  9990
2 86437  98.0000 216.0000 0000000   0.0000 126.0000 14.73473854    12
CTC1_L_00560020-01
1 86438U 23820JU  26070.40840278  .00000000  00000+0  00000-0 0  9991
2 86438  98.0000 228.0000 0000000   0.0000 228.0000 14.73473854    19
CTC1_L_00560020-02
1 86439U 22156AZ  26070.40840278  .00000000  00000+0  00000-0 0  9993
2 86439  98.0000 228.0000 0000000   0.0000 318.0000 14.73473854    10
CTC1_L_00560020-03
1 86440U 23729VJ  26070.40840278  .00000000  00000+0  00000-0 0  9992
2 86440  98.0000 228.0000 0000000   0.0000  48.0000 14.73473854    12
CTC1_L_00560020-04
1 86441U 23297UJ  26070.40840278  .00000000  00000+0  00000-0 0  9993
2 86441  98.0000 228.0000 0000000   0.0000 138.0000 14.73473854    13
CTC1_L_00560021-01
1 86442U 23560R   26070.40840278  .00000000  00000+0  00000-0 0  9997
2 86442  98.0000 240.0000 0000000   0.0000 240.0000 14.73473854    12
CTC1_L_00560021-02
1 86443U 22356VF  26070.40840278  .00000000  00000+0  00000-0 0  9990
2 86443  98.0000 240.0000 0000000   0.0000 330.0000 14.73473854    13
CTC1_L_00560021-03
1 86444U 25513BQ  26070.40840278  .00000000  00000+0  00000-0 0  9999
2 86444  98.0000 240.0000 0000000   0.0000  60.0000 14.73473854    14
CTC1_L_00560021-04
1 86445U 24863FS  26070.40840278  .00000000  00000+0  00000-0 0  9997
2 86445  98.0000 240.0000 0000000   0.0000 150.0000 14.73473854    15
CTC1_L_00560022-01
1 86446U 26780HE  26070.40840278  .00000000  00000+0  00000-0 0  9998
2 86446  98.0000 252.0000 0000000   0.0000 252.0000 14.73473854    12
CTC1_L_00560022-02
1 86447U 22907HS  26070.40840278  .00000000  00000+0  00000-0 0  9996
2 86447  98.0000 252.0000 0000000   0.0000 342.0000 14.73473854    13
CTC1_L_00560022-03
1 86448U 22270FK  26070.40840278  .00000000  00000+0  00000-0 0  9990
2 86448  98.0000 252.0000 0000000   0.0000  72.0000 14.73473854    14
CTC1_L_00560022-04
1 86449U 25875R   26070.40840278  .00000000  00000+0  00000-0 0  9995
2 86449  98.0000 252.0000 0000000   0.0000 162.0000 14.73473854    15
CTC1_L_00560023-01
1 86450U 24101FK  26070.40840278  .00000000  00000+0  00000-0 0  9998
2 86450  98.0000 264.0000 0000000   0.0000 264.0000 14.73473854    13
CTC1_L_00560023-02
1 86451U 26407CC  26070.40840278  .00000000  00000+0  00000-0 0  9990
2 86451  98.0000 264.0000 0000000   0.0000 354.0000 14.73473854    14
CTC1_L_00560023-03
1 86452U 25053SM  26070.40840278  .00000000  00000+0  00000-0 0  9997
2 86452  98.0000 264.0000 0000000   0.0000  84.0000 14.73473854    15
CTC1_L_00560023-04
1 86453U 24361RD  26070.40840278  .00000000  00000+0  00000-0 0  9999
2 86453  98.0000 264.0000 0000000   0.0000 174.0000 14.73473854    16
CTC1_L_00560024-01
1 86454U 22296DO  26070.40840278  .00000000  00000+0  00000-0 0  9995
2 86454  98.0000 276.0000 0000000   0.0000 276.0000 14.73473854    13
CTC1_L_00560024-02
1 86455U 25703VP  26070.40840278  .00000000  00000+0  00000-0 0  9992
2 86455  98.0000 276.0000 0000000   0.0000   6.0000 14.73473854    15
CTC1_L_00560024-03
1 86456U 24405RD  26070.40840278  .00000000  00000+0  00000-0 0  9991
2 86456  98.0000 276.0000 0000000   0.0000  96.0000 14.73473854    15
CTC1_L_00560024-04
1 86457U 23171DC  26070.40840278  .00000000  00000+0  00000-0 0  9991
2 86457  98.0000 276.0000 0000000   0.0000 186.0000 14.73473854    16
CTC1_L_00560025-01
1 86458U 23644CI  26070.40840278  .00000000  00000+0  00000-0 0  9997
2 86458  98.0000 288.0000 0000000   0.0000 288.0000 14.73473854    13
CTC1_L_00560025-02
1 86459U 24627NP  26070.40840278  .00000000  00000+0  00000-0 0  9990
2 86459  98.0000 288.0000 0000000   0.0000  18.0000 14.73473854    15
CTC1_L_00560025-03
1 86460U 24157VC  26070.40840278  .00000000  00000+0  00000-0 0  9990
2 86460  98.0000 288.0000 0000000   0.0000 108.0000 14.73473854    17
CTC1_L_00560025-04
1 86461U 24485AP  26070.40840278  .00000000  00000+0  00000-0 0  9995
2 86461  98.0000 288.0000 0000000   0.0000 198.0000 14.73473854    17
CTC1_L_00560026-01
1 86462U 22766VV  26070.40840278  .00000000  00000+0  00000-0 0  9996
2 86462  98.0000 300.0000 0000000   0.0000 300.0000 14.73473854    18
CTC1_L_00560026-02
1 86463U 22292NU  26070.40840278  .00000000  00000+0  00000-0 0  9991
2 86463  98.0000 300.0000 0000000   0.0000  30.0000 14.73473854    19
CTC1_L_00560026-03
1 86464U 26070JE  26070.40840278  .00000000  00000+0  00000-0 0  9990
2 86464  98.0000 300.0000 0000000   0.0000 120.0000 14.73473854    10
CTC1_L_00560026-04
1 86465U 25046RI  26070.40840278  .00000000  00000+0  00000-0 0  9993
2 86465  98.0000 300.0000 0000000   0.0000 210.0000 14.73473854    11
CTC1_L_00560027-01
1 86466U 26252EU  26070.40840278  .00000000  00000+0  00000-0 0  9994
2 86466  98.0000 312.0000 0000000   0.0000 312.0000 14.73473854    18
CTC1_L_00560027-02
1 86467U 24913MI  26070.40840278  .00000000  00000+0  00000-0 0  9997
2 86467  98.0000 312.0000 0000000   0.0000  42.0000 14.73473854    19
CTC1_L_00560027-03
1 86468U 24946QZ  26070.40840278  .00000000  00000+0  00000-0 0  9994
2 86468  98.0000 312.0000 0000000   0.0000 132.0000 14.73473854    10
CTC1_L_00560027-04
1 86469U 23836SJ  26070.40840278  .00000000  00000+0  00000-0 0  9992
2 86469  98.0000 312.0000 0000000   0.0000 222.0000 14.73473854    11
CTC1_L_00560028-01
1 86470U 24801MO  26070.40840278  .00000000  00000+0  00000-0 0  9997
2 86470  98.0000 324.0000 0000000   0.0000 324.0000 14.73473854    19
CTC1_L_00560028-02
1 86471U 24251CA  26070.40840278  .00000000  00000+0  00000-0 0  9997
2 86471  98.0000 324.0000 0000000   0.0000  54.0000 14.73473854    10
CTC1_L_00560028-03
1 86472U 22810NY  26070.40840278  .00000000  00000+0  00000-0 0  9997
2 86472  98.0000 324.0000 0000000   0.0000 144.0000 14.73473854    11
CTC1_L_00560028-04
1 86473U 22569EM  26070.40840278  .00000000  00000+0  00000-0 0  9999
2 86473  98.0000 324.0000 0000000   0.0000 234.0000 14.73473854    12
CTC1_L_00560029-01
1 86474U 25617WP  26070.40840278  .00000000  00000+0  00000-0 0  9997
2 86474  98.0000 336.0000 0000000   0.0000 336.0000 14.73473854    19
CTC1_L_00560029-02
1 86475U 26153FW  26070.40840278  .00000000  00000+0  00000-0 0  9994
2 86475  98.0000 336.0000 0000000   0.0000  66.0000 14.73473854    10
CTC1_L_00560029-03
1 86476U 25014HV  26070.40840278  .00000000  00000+0  00000-0 0  9990
2 86476  98.0000 336.0000 0000000   0.0000 156.0000 14.73473854    11
CTC1_L_00560029-04
1 86477U 24497QE  26070.40840278  .00000000  00000+0  00000-0 0  9995
2 86477  98.0000 336.0000 0000000   0.0000 246.0000 14.73473854    12
CTC1_L_00560030-01
1 86478U 23137LV  26070.40840278  .00000000  00000+0  00000-0 0  9996
2 86478  98.0000 348.0000 0000000   0.0000 348.0000 14.73473854    19
CTC1_L_00560030-02
1 86479U 22815HQ  26070.40840278  .00000000  00000+0  00000-0 0  9999
2 86479  98.0000 348.0000 0000000   0.0000  78.0000 14.73473854    10
CTC1_L_00560030-03
1 86480U 24768RS  26070.40840278  .00000000  00000+0  00000-0 0  9990
2 86480  98.0000 348.0000 0000000   0.0000 168.0000 14.73473854    12
CTC1_L_00560030-04
1 86481U 24607BT  26070.40840278  .00000000  00000+0  00000-0 0  9993
2 86481  98.0000 348.0000 0000000   0.0000 258.0000 14.73473854    13
